[{"OBJECT_NAME":"DEIMOS-1","OBJECT_ID":"2009-041A","EPOCH":"2022-08-17T18:36:56.624832","MEAN_MOTION":14.72090537,"ECCENTRICITY":0.0002655,"INCLINATION":97.7092,"RA_OF_ASC_NODE":77.6872,"ARG_OF_PERICENTER":54.532,"MEAN_ANOMALY":305.6133,"EPHEMERIS_TYPE":0,"CLASSIFICATION_TYPE":"U","NORAD_CAT_ID":35681,"ELEMENT_SET_NO":999,"REV_AT_EPOCH":70079,"BSTAR":4.579e-5,"MEAN_MOTION_DOT":2.42e-6,"MEAN_MOTION_DDOT":0},{"OBJECT_NAME":"DUBAISAT-1","OBJECT_ID":"2009-041B","EPOCH":"2022-08-17T09:25:19.608384","MEAN_MOTION":14.69251316,"ECCENTRICITY":0.0010345,"INCLINATION":97.8107,"RA_OF_ASC_NODE":19.9547,"ARG_OF_PERICENTER":234.4544,"MEAN_ANOMALY":125.5666,"EPHEMERIS_TYPE":0,"CLASSIFICATION_TYPE":"U","NORAD_CAT_ID":35682,"ELEMENT_SET_NO":999,"REV_AT_EPOCH":69923,"BSTAR":9.216e-5,"MEAN_MOTION_DOT":4.97e-6,"MEAN_MOTION_DDOT":0},{"OBJECT_NAME":"OCEANSAT-2","OBJECT_ID":"2009-051A","EPOCH":"2022-08-17T18:13:43.544064","MEAN_MOTION":14.35606695,"ECCENTRICITY":0.000193,"INCLINATION":98.3004,"RA_OF_ASC_NODE":322.3786,"ARG_OF_PERICENTER":299.023,"MEAN_ANOMALY":61.077,"EPHEMERIS_TYPE":0,"CLASSIFICATION_TYPE":"U","NORAD_CAT_ID":35931,"ELEMENT_SET_NO":999,"REV_AT_EPOCH":68301,"BSTAR":-0.015946,"MEAN_MOTION_DOT":-0.0004569,"MEAN_MOTION_DDOT":0},{"OBJECT_NAME":"WORLDVIEW-2 (WV-2)","OBJECT_ID":"2009-055A","EPOCH":"2022-08-17T19:10:56.497728","MEAN_MOTION":14.37656662,"ECCENTRICITY":0.0001692,"INCLINATION":98.4841,"RA_OF_ASC_NODE":304.1674,"ARG_OF_PERICENTER":136.2116,"MEAN_ANOMALY":223.9201,"EPHEMERIS_TYPE":0,"CLASSIFICATION_TYPE":"U","NORAD_CAT_ID":35946,"ELEMENT_SET_NO":999,"REV_AT_EPOCH":67472,"BSTAR":4.3496e-5,"MEAN_MOTION_DOT":8.7e-7,"MEAN_MOTION_DDOT":0},{"OBJECT_NAME":"SMOS","OBJECT_ID":"2009-059A","EPOCH":"2022-08-17T02:50:36.934656","MEAN_MOTION":14.39771225,"ECCENTRICITY":0.0001225,"INCLINATION":98.4445,"RA_OF_ASC_NODE":55.7604,"ARG_OF_PERICENTER":84.0107,"MEAN_ANOMALY":276.1221,"EPHEMERIS_TYPE":0,"CLASSIFICATION_TYPE":"U","NORAD_CAT_ID":36036,"ELEMENT_SET_NO":999,"REV_AT_EPOCH":67213,"BSTAR":6.2174e-5,"MEAN_MOTION_DOT":1.51e-6,"MEAN_MOTION_DDOT":0},{"OBJECT_NAME":"YAOGAN 7","OBJECT_ID":"2009-069A","EPOCH":"2022-08-17T18:57:37.213920","MEAN_MOTION":14.75168151,"ECCENTRICITY":0.002463,"INCLINATION":98.1949,"RA_OF_ASC_NODE":90.2829,"ARG_OF_PERICENTER":209.1216,"MEAN_ANOMALY":150.8635,"EPHEMERIS_TYPE":0,"CLASSIFICATION_TYPE":"U","NORAD_CAT_ID":36110,"ELEMENT_SET_NO":999,"REV_AT_EPOCH":68318,"BSTAR":0.00014825,"MEAN_MOTION_DOT":9.52e-6,"MEAN_MOTION_DDOT":0},{"OBJECT_NAME":"TANDEM-X","OBJECT_ID":"2010-030A","EPOCH":"2022-08-17T15:14:13.827264","MEAN_MOTION":15.19145137,"ECCENTRICITY":0.0001735,"INCLINATION":97.4464,"RA_OF_ASC_NODE":236.368,"ARG_OF_PERICENTER":86.0189,"MEAN_ANOMALY":340.6958,"EPHEMERIS_TYPE":0,"CLASSIFICATION_TYPE":"U","NORAD_CAT_ID":36605,"ELEMENT_SET_NO":999,"REV_AT_EPOCH":67415,"BSTAR":-2.0359e-5,"MEAN_MOTION_DOT":-4.94e-6,"MEAN_MOTION_DDOT":0},{"OBJECT_NAME":"CARTOSAT-2B","OBJECT_ID":"2010-035A","EPOCH":"2022-08-17T18:23:09.849408","MEAN_MOTION":14.78624301,"ECCENTRICITY":0.0014808,"INCLINATION":97.955,"RA_OF_ASC_NODE":289.4675,"ARG_OF_PERICENTER":47.0497,"MEAN_ANOMALY":313.199,"EPHEMERIS_TYPE":0,"CLASSIFICATION_TYPE":"U","NORAD_CAT_ID":36795,"ELEMENT_SET_NO":999,"REV_AT_EPOCH":65312,"BSTAR":-0.00042527,"MEAN_MOTION_DOT":-3.169e-5,"MEAN_MOTION_DDOT":0},{"OBJECT_NAME":"YAOGAN 10","OBJECT_ID":"2010-038A","EPOCH":"2022-08-17T19:21:24.740640","MEAN_MOTION":14.81320386,"ECCENTRICITY":0.0001354,"INCLINATION":97.9757,"RA_OF_ASC_NODE":240.3421,"ARG_OF_PERICENTER":77.622,"MEAN_ANOMALY":282.5144,"EPHEMERIS_TYPE":0,"CLASSIFICATION_TYPE":"U","NORAD_CAT_ID":36834,"ELEMENT_SET_NO":999,"REV_AT_EPOCH":64986,"BSTAR":4.9153e-5,"MEAN_MOTION_DOT":3.31e-6,"MEAN_MOTION_DDOT":0},{"OBJECT_NAME":"COSMO-SKYMED 4","OBJECT_ID":"2010-060A","EPOCH":"2022-08-17T19:34:05.085696","MEAN_MOTION":14.8216222,"ECCENTRICITY":0.0001466,"INCLINATION":97.889,"RA_OF_ASC_NODE":52.5954,"ARG_OF_PERICENTER":81.3885,"MEAN_ANOMALY":278.7478,"EPHEMERIS_TYPE":0,"CLASSIFICATION_TYPE":"U","NORAD_CAT_ID":37216,"ELEMENT_SET_NO":999,"REV_AT_EPOCH":63734,"BSTAR":4.7393e-5,"MEAN_MOTION_DOT":3.25e-6,"MEAN_MOTION_DDOT":0},{"OBJECT_NAME":"RESOURCESAT-2","OBJECT_ID":"2011-015A","EPOCH":"2022-08-17T18:47:23.962272","MEAN_MOTION":14.21653739,"ECCENTRICITY":0.0003124,"INCLINATION":98.6599,"RA_OF_ASC_NODE":301.1467,"ARG_OF_PERICENTER":247.2285,"MEAN_ANOMALY":112.8562,"EPHEMERIS_TYPE":0,"CLASSIFICATION_TYPE":"U","NORAD_CAT_ID":37387,"ELEMENT_SET_NO":999,"REV_AT_EPOCH":58787,"BSTAR":5.8292e-5,"MEAN_MOTION_DOT":8.5e-7,"MEAN_MOTION_DDOT":0},{"OBJECT_NAME":"HAIYANG-2A","OBJECT_ID":"2011-043A","EPOCH":"2022-08-17T11:14:07.245888","MEAN_MOTION":13.78743824,"ECCENTRICITY":0.0001606,"INCLINATION":99.3181,"RA_OF_ASC_NODE":234.265,"ARG_OF_PERICENTER":72.3045,"MEAN_ANOMALY":287.8282,"EPHEMERIS_TYPE":0,"CLASSIFICATION_TYPE":"U","NORAD_CAT_ID":37781,"ELEMENT_SET_NO":999,"REV_AT_EPOCH":55404,"BSTAR":2.6965e-5,"MEAN_MOTION_DOT":-1.6e-7,"MEAN_MOTION_DDOT":0},{"OBJECT_NAME":"RASAT","OBJECT_ID":"2011-044D","EPOCH":"2022-08-17T18:32:01.697568","MEAN_MOTION":14.65052872,"ECCENTRICITY":0.0020716,"INCLINATION":98.0969,"RA_OF_ASC_NODE":321.8154,"ARG_OF_PERICENTER":299.1133,"MEAN_ANOMALY":60.7998,"EPHEMERIS_TYPE":0,"CLASSIFICATION_TYPE":"U","NORAD_CAT_ID":37791,"ELEMENT_SET_NO":999,"REV_AT_EPOCH":58809,"BSTAR":5.0339e-5,"MEAN_MOTION_DOT":2.22e-6,"MEAN_MOTION_DDOT":0},{"OBJECT_NAME":"MEGHA-TROPIQUES","OBJECT_ID":"2011-058A","EPOCH":"2022-08-16T18:46:27.474816","MEAN_MOTION":14.16657559,"ECCENTRICITY":0.0042813,"INCLINATION":19.9788,"RA_OF_ASC_NODE":282.8353,"ARG_OF_PERICENTER":225.5041,"MEAN_ANOMALY":134.1859,"EPHEMERIS_TYPE":0,"CLASSIFICATION_TYPE":"U","NORAD_CAT_ID":37838,"ELEMENT_SET_NO":999,"REV_AT_EPOCH":55963,"BSTAR":3.5136e-5,"MEAN_MOTION_DOT":3.41e-6,"MEAN_MOTION_DDOT":0},{"OBJECT_NAME":"SRMSAT","OBJECT_ID":"2011-058D","EPOCH":"2022-08-16T18:09:35.080128","MEAN_MOTION":14.10765811,"ECCENTRICITY":0.0011655,"INCLINATION":19.971,"RA_OF_ASC_NODE":250.4089,"ARG_OF_PERICENTER":287.0328,"MEAN_ANOMALY":231.202,"EPHEMERIS_TYPE":0,"CLASSIFICATION_TYPE":"U","NORAD_CAT_ID":37841,"ELEMENT_SET_NO":999,"REV_AT_EPOCH":55976,"BSTAR":4.6768e-5,"MEAN_MOTION_DOT":3.49e-6,"MEAN_MOTION_DDOT":0},{"OBJECT_NAME":"YAOGAN 13","OBJECT_ID":"2011-072A","EPOCH":"2022-08-17T21:30:12.228768","MEAN_MOTION":15.21767966,"ECCENTRICITY":0.0002428,"INCLINATION":97.6356,"RA_OF_ASC_NODE":180.8995,"ARG_OF_PERICENTER":133.5373,"MEAN_ANOMALY":303.7194,"EPHEMERIS_TYPE":0,"CLASSIFICATION_TYPE":"U","NORAD_CAT_ID":37941,"ELEMENT_SET_NO":999,"REV_AT_EPOCH":59414,"BSTAR":0.0001927,"MEAN_MOTION_DOT":4.297e-5,"MEAN_MOTION_DDOT":0},{"OBJECT_NAME":"PLEIADES 1A","OBJECT_ID":"2011-076F","EPOCH":"2022-08-17T18:41:18.394368","MEAN_MOTION":14.58571363,"ECCENTRICITY":0.0001343,"INCLINATION":98.1977,"RA_OF_ASC_NODE":303.9287,"ARG_OF_PERICENTER":95.4135,"MEAN_ANOMALY":264.7219,"EPHEMERIS_TYPE":0,"CLASSIFICATION_TYPE":"U","NORAD_CAT_ID":38012,"ELEMENT_SET_NO":999,"REV_AT_EPOCH":56801,"BSTAR":4.5465e-5,"MEAN_MOTION_DOT":1.66e-6,"MEAN_MOTION_DDOT":0}]