DEIMOS-1                
1 35681U 09041A   22229.77565538  .00000242  00000+0  45790-4 0  9996
2 35681  97.7092  77.6872 0002655  54.5320 305.6133 14.72090537700795
DUBAISAT-1              
1 35682U 09041B   22229.39258806  .00000497  00000+0  92160-4 0  9997
2 35682  97.8107  19.9547 0010345 234.4544 125.5666 14.69251316699230
OCEANSAT-2              
1 35931U 09051A   22229.75953176 -.00045690  00000+0 -15946-1 0  9997
2 35931  98.3004 322.3786 0001930 299.0230  61.0770 14.35606695683010
WORLDVIEW-2 (WV-2)      
1 35946U 09055A   22229.79926502  .00000087  00000+0  43496-4 0  9997
2 35946  98.4841 304.1674 0001692 136.2116 223.9201 14.37656662674727
SMOS                    
1 36036U 09059A   22229.11848304  .00000151  00000+0  62174-4 0  9997
2 36036  98.4445  55.7604 0001225  84.0107 276.1221 14.39771225672132
YAOGAN 7                
1 36110U 09069A   22229.79001405  .00000952  00000+0  14825-3 0  9996
2 36110  98.1949  90.2829 0024630 209.1216 150.8635 14.75168151683182
TANDEM-X                
1 36605U 10030A   22229.63488226 -.00000494  00000+0 -20359-4 0  9991
2 36605  97.4464 236.3680 0001735  86.0189 340.6958 15.19145137674157
CARTOSAT-2B             
1 36795U 10035A   22229.76608622 -.00003169  00000+0 -42527-3 0  9996
2 36795  97.9550 289.4675 0014808  47.0497 313.1990 14.78624301653129
YAOGAN 10               
1 36834U 10038A   22229.80653635  .00000331  00000+0  49153-4 0  9991
2 36834  97.9757 240.3421 0001354  77.6220 282.5144 14.81320386649868
COSMO-SKYMED 4          
1 37216U 10060A   22229.81533664  .00000325  00000+0  47393-4 0  9998
2 37216  97.8890  52.5954 0001466  81.3885 278.7478 14.82162220637346
RESOURCESAT-2           
1 37387U 11015A   22229.78291623  .00000085  00000+0  58292-4 0  9993
2 37387  98.6599 301.1467 0003124 247.2285 112.8562 14.21653739587879
HAIYANG-2A              
1 37781U 11043A   22229.46813942 -.00000016  00000+0  26965-4 0  9998
2 37781  99.3181 234.2650 0001606  72.3045 287.8282 13.78743824554047
RASAT                   
1 37791U 11044D   22229.77224187  .00000222  00000+0  50339-4 0  9991
2 37791  98.0969 321.8154 0020716 299.1133  60.7998 14.65052872588097
MEGHA-TROPIQUES         
1 37838U 11058A   22228.78226244  .00000341  00000+0  35136-4 0  9994
2 37838  19.9788 282.8353 0042813 225.5041 134.1859 14.16657559559639
SRMSAT                  
1 37841U 11058D   22228.75665602  .00000349  00000+0  46768-4 0  9991
2 37841  19.9710 250.4089 0011655 287.0328 231.2020 14.10765811559764
YAOGAN 13               
1 37941U 11072A   22229.89597487  .00004297  00000+0  19270-3 0  9992
2 37941  97.6356 180.8995 0002428 133.5373 303.7194 15.21767966594143
PLEIADES 1A             
1 38012U 11076F   22229.77868512  .00000166  00000+0  45465-4 0  9990
2 38012  98.1977 303.9287 0001343  95.4135 264.7219 14.58571363568011
